LEMUR-2-AMANDA-SVANTE   
1 48269U 21034B   26068.77637527  .00030872  00000+0  11134-2 0  9996
2 48269  97.5829 144.8625 0002703 205.4721 154.6385 15.28469003265849
STARLINK-31977          
1 59892U 24100H   26068.44876486 -.00000381  00000+0 -43521-5 0  9992
2 59892  42.9997 119.5264 0000831 250.3237 109.7525 15.27561329101201
